[Satellite]
VERSION=1.1
NAME=RS34S (SXC3-218 KUZBAS*)
NICKNAME=RS34S (SXC3-218 KUZBAS*)
TLE1=1 53375U 22096F   22342.47800288  .00011527  00000+0  43723-3 0  9999
TLE2=2 53375  97.4285 243.1646 0003498  88.0146  84.1670 15.27018216 18476
STATUS=0
